ONEWEB-0628             
1 55169U 23004AF  25048.15449207  .00000225  00000+0  58923-3 0  9994
2 55169  87.8822  87.2013 0001142  93.3984 266.7276 13.12444042104419
ONEWEB-0629             
1 55170U 23004AG  25047.88137191  .00000097  00000+0  21595-3 0  9993
2 55170  87.9043 102.5514 0001694 110.7395 249.3918 13.17647589103679
ONEWEB-0631             
1 55171U 23004AH  25048.09844819 -.00000003  00000+0 -39330-4 0  9996
2 55171  87.9055  71.9011 0002083  75.6904 284.4459 13.18687348105740
ONEWEB-0709             
1 55172U 23004AJ  25047.88058958  .00000425  00000+0  11639-2 0  9990
2 55172  87.8871 117.8442 0002641  87.1081 273.0350 13.11414220102266
ONEWEB-0710             
1 55173U 23004AK  25047.89572423 -.00000011  00000+0 -60457-4 0  9997
2 55173  87.9043 102.5730 0001793  97.0825 263.0510 13.17649634103671
ONEWEB-0711             
1 55174U 23004AL  25047.92805574  .00000065  00000+0  14674-3 0  9994
2 55174  87.8871 117.8027 0001090  91.2075 268.9177 13.11418531102239
ONEWEB-0713             
1 55175U 23004AM  25048.17560465  .00000643  00000+0  17777-2 0  9998
2 55175  87.8868 117.7614 0001577  99.6700 260.4606 13.11416618102254
